ENDUROSAT ONE           
1 43551U 98067NZ  20269.98570551  .00342934  60643-4  66447-3 0  9995
2 43551  51.6260 111.6900 0004549 227.7350 132.3275 15.99790956126356
EQUISAT                 
1 43552U 98067PA  20270.10510773  .00069467  00000-0  35277-3 0  9993
2 43552  51.6294 129.3405 0004401 144.3352 215.7944 15.80816812126093
AEROCUBE 12A            
1 43556U 18046C   20269.70287480  .00001840  00000-0  74540-4 0  9994
2 43556  51.6432 343.7764 0007676 296.8119  63.2076 15.30079532122725
AEROCUBE 12B            
1 43557U 18046D   20269.65255694  .00001078  00000-0  49198-4 0  9995
2 43557  51.6435 344.9245 0007724 296.1243  63.8942 15.29764037122650
UITMSAT-1               
1 43589U 98067PD  20269.86597554  .00130068  00000-0  48559-3 0  9999
2 43589  51.6310 125.2660 0004242 176.5066 183.5969 15.87050676121866
MAYA-1                  
1 43590U 98067PE  20269.85798329  .00128266  00000-0  47818-3 0  9997
2 43590  51.6261 125.1533 0003920 173.7090 186.3964 15.87087265121791
BHUTAN-1                
1 43591U 98067PF  20269.87961733  .00136009  00000-0  49814-3 0  9993
2 43591  51.6320 124.6947 0004288 177.9863 182.1160 15.87421019121806
SIRIUSSAT-1             
1 43595U 98067PG  20269.84268434  .00048201  00000-0  23108-3 0  9996
2 43595  51.6285 132.6153 0001742  71.8606 288.3457 15.82222011120877
SIRIUSSAT-2             
1 43596U 98067PH  20270.10073417  .00049744  00000-0  23860-3 0  9991
2 43596  51.6376 132.1841 0007468 167.9421 192.2288 15.82162205120908
TANUSHA-3               
1 43597U 98067PJ  20248.19053934  .05224124  12197-4  75260-3 0  9995
2 43597  51.6102 220.8087 0003266 222.6275 137.4495 16.33928828117760
SURFSAT                 
1 43614U 18070B   20269.51405283  .00004687  00000-0  11881-3 0  9998
2 43614  93.0276 196.0014 0012937 319.5676  40.4616 15.39667577113874
CP7 (DAVE)              
1 43615U 18070C   20269.81569938  .00004264  00000-0  10869-3 0  9996
2 43615  93.0280 196.1105 0013083 317.7051  42.3194 15.39498260113910
ELFIN-B                 
1 43616U 18070D   20269.95673663  .00006857  00000-0  16577-3 0  9995
2 43616  93.0237 196.1475 0013307 318.2841  41.7398 15.41076013113993
ELFIN-A                 
1 43617U 18070E   20269.84670987  .00007513  00000-0  18031-3 0  9997
2 43617  93.0291 196.6991 0012581 315.1381  44.8857 15.41302732113983
CUBEBEL-1 (BSUSAT-1)    
1 43666U 18083E   20270.13431119  .00001016  00000-0  52589-4 0  9990
2 43666  97.4843 295.5844 0015496  16.2524  70.8310 15.18432018105899
CICERO 10               
1 43690U 18088A   20269.80383964  .00001341  00000-0  59717-4 0  9999
2 43690  85.0417  12.1896 0012921 307.2889  52.7173 15.20376484104008
IRVINE01                
1 43693U 18088D   20269.55501552  .00004026  00000-0  16777-3 0  9990
2 43693  85.0385  10.7280 0015298 283.6718  76.2821 15.23278571104084
PROXIMA I               
1 43694U 18088E   20269.54936468  .00001290  00000-0  54372-4 0  9992
2 43694  85.0361  10.6374 0016819 275.9287  84.0038 15.22126464104075
PROXIMA II              
1 43696U 18088G   20269.35026083  .00001156  00000-0  48536-4 0  9992
2 43696  85.0362  10.7737 0016852 276.6474  83.2849 15.22126038104039
FACSAT-1                
1 43721U 18096C   20270.18563904  .00001623  00000-0  62885-4 0  9993
2 43721  97.4129 343.1903 0018793 123.8927 320.9486 15.27470080101765
CENTAURI-2              
1 43722U 18096D   20269.43861104  .00003076  00000-0  11456-3 0  9994
2 43722  97.4148 342.8260 0018872 126.2121 234.0867 15.28078521101662
INNOSAT-2               
1 43738U 18096V   20270.22324222  .00003275  00000-0  11175-3 0  9994
2 43738  97.4164 346.0078 0024426 129.2337 315.1026 15.30789886101949
SIRION PATHFINDER-2     
1 43759U 18099B   20269.95497900  .00000678  00000-0  66642-4 0  9996
2 43759  97.6970 339.8594 0013728 200.7900 159.2770 14.95318646 98957
CORVUS-BC 4             
1 43767U 18099K   20269.79956515  .00000625  00000-0  62688-4 0  9997
2 43767  97.6947 339.0102 0011332 205.4196 154.6440 14.94759772 98899
MOVE-II                 
1 43780U 18099Y   20269.42304118  .00000861  00000-0  82863-4 0  9997
2 43780  97.6988 339.3035 0012630 214.8412 145.1983 14.95489631 98852
SPACEBEE-7              
1 43816U 18099BL  20269.47705114  .00000864  00000-0  82550-4 0  9999
2 43816  97.6998 339.8085 0013051 198.1178 161.9580 14.95765751 98448
SPACEBEE-5              
1 43817U 18099BM  20269.85443825  .00000824  00000-0  77586-4 0  9999
2 43817  97.7056 340.7974 0012904 197.5969 162.4807 14.96475801 98522
SPACEBEE-6              
1 43818U 18099BN  20270.16255942  .00000871  00000-0  82705-4 0  9998
2 43818  97.7019 340.6738 0012926 195.2710 164.8122 14.95990132 98706
SHIELDS 1               
1 43850U 18104B   20269.83359338  .00000615  00000-0  25468-4 0  9996
2 43850  85.0258 108.9978 0017000  65.1966 295.1042 15.21463866 98735
STF-1                   
1 43852U 18104D   20270.11344699  .00001504  00000-0  64912-4 0  9990
2 43852  85.0298 109.4154 0016827  76.8901 283.4217 15.21460788 98753
ZACUBE-2                
1 43907U 18111AH  20270.15054118  .00000547  00000-0  24822-4 0  9999
2 43907  97.2533 166.8224 0022020 143.4182 320.8731 15.24681547 97353
LUME 1                  
1 43908U 18111AJ  20269.82659102  .00001315  00000-0  54842-4 0  9995
2 43908  97.2537 166.7544 0022029 144.3453 215.9262 15.25216253 97321
AOBA VELOX-IV           
1 43940U 19003J   20269.89139443  .00002325  00000-0  94433-4 0  9992
2 43940  97.2182 317.6874 0022365 224.7189 135.2247 15.25331140 93953
CATSAT-2                
1 44029U 98067PV  20269.89917069  .00035926  00000-0  31193-3 0  9992
2 44029  51.6375 165.7536 0004258 118.9119 241.2305 15.68724294 94277
DELPHINI                
1 44030U 98067PW  20269.90359693  .00043267  00000-0  35246-3 0  9999
2 44030  51.6323 163.3610 0004554 117.0840 243.0623 15.70182555 94273
UNITE                   
1 44031U 98067PX  20269.36077402  .00015882  00000-0  17616-3 0  9998
2 44031  51.6365 177.8746 0003837  98.7625 261.3804 15.63122617 94032
CATSAT-1                
1 44033U 98067PZ  20269.89911679  .00036567  00000-0  31725-3 0  9991
2 44033  51.6377 165.7620 0004328 114.9134 245.2313 15.68734175 94181
RAAVANA-1               
1 44329U 98067QE  20269.01367801  .00018184  00000-0  22791-3 0  9993
2 44329  51.6387 194.3847 0005644  28.9568 331.1737 15.59808479 72535
UGUISU                  
1 44330U 98067QF  20270.05745664  .00020680  00000-0  25888-3 0  9992
2 44330  51.6360 189.3265 0005542  32.1185 328.0145 15.59743993 72677
NEPALISAT-1             
1 44331U 98067QG  20269.51760705  .00019769  00000-0  24685-3 0  9995
2 44331  51.6360 191.7240 0005627  33.7087 326.4263 15.59843592 72602
SPOOQY-1                
1 44332U 98067QH  20269.01567092  .00017439  00000-0  21994-3 0  9997
2 44332  51.6370 194.3781 0004882  36.2979 323.8344 15.59680980 72480
SPACEBEE-9              
1 44370U 19037F   20269.42699465  .00015918  00000-0  33783-3 0  9993
2 44370  45.0055 276.2118 0012399  50.7184 309.4804 15.44857669 70050
SPACEBEE-8              
1 44371U 19037G   20269.69889050  .00034097  00000-0  58317-3 0  9993
2 44371  45.0053 264.7411 0011245  60.7075 299.4939 15.50661698 70213
IOD-1 GEMS              
1 44385U 98067QK  20270.09439689  .00039756  00000-0  42450-3 0  9991
2 44385  51.6383 185.1488 0001234  36.3169 323.7910 15.63514765 70213
MOVE-IIB                
1 44398U 19038N   20269.85290691  .00000935  00000-0  57077-4 0  9995
2 44398  97.5454 229.8675 0025585 138.1375 222.1828 15.12519892 67759
SONATE                  
1 44400U 19038Q   20269.84888228  .00000185  00000-0  14480-4 0  9995
2 44400  97.5495 229.8675 0025761 137.2756 223.0484 15.12040696 67745
LUCKY-7                 
1 44406U 19038W   20269.84644253  .00000828  00000-0  51226-4 0  9992
2 44406  97.5504 230.0071 0025655 137.1370 223.1866 15.12327190 67741
BEESAT 9                
1 44412U 19038AC  20269.83869130  .00001117  00000-0  67655-4 0  9996
2 44412  97.5493 229.9826 0023558 142.3264 217.9622 15.12442938 67446
JAISAT-1                
1 44419U 19038F   20269.89305134  .00001092  00000-0  65387-4 0  9990
2 44419  97.5495 230.3770 0022432 141.0088 219.2766 15.12927218 67789
SWIATOWID               
1 44426U 98067QL  20270.06817130  .00035124  00000-0  35418-3 0  9996
2 44426  51.6385 183.7765 0002285  32.7443 161.7997 15.65026572 70249
KRAKSAT                 
1 44427U 98067QM  20270.21824811  .00010332  00000-0  14503-3 0  9994
2 44427  51.6418 193.1588 0002085   2.6582 146.8860 15.57354523 70179
VCC A                   
1 44428U 98067QN  20270.07495512  .00019528  00000-0  25079-3 0  9997
2 44428  51.6388 191.0209 0002180  24.1453 335.9641 15.59119184 70199
ENTRYSAT                
1 44429U 98067QP  20270.16053501  .00026017  00000-0  31410-3 0  9993
2 44429  51.6366 188.5498 0001654  26.2345 333.8732 15.60559395 70232
VCC C                   
1 44430U 98067QQ  20269.59498435  .00032694  00000-0  36745-3 0  9993
2 44430  51.6367 189.2800 0001997  52.9600 307.1577 15.62294139 69008
VCC B                   
1 44431U 98067QR  20270.07128578  .00019888  00000-0  25458-3 0  9996
2 44431  51.6371 190.9688 0002313  22.2229 337.8863 15.59192336 70133
ATL-1                   
1 44830U 19084G   20269.90085903  .00452659  90277-4  87575-3 0  9999
2 44830  96.9503 141.0124 0013331 195.9602 164.1259 16.00213498 46371
SMOG-P                  
1 44832U 19084J   20270.09456789  .02226979  21719-5  12669-2 0  9990
2 44832  96.9509 141.9629 0008377 207.6087 152.4759 16.19060647 46450
DUCHIFAT-3              
1 44854U 19089C   20270.13731523  .00000340  00000-0  33872-4 0  9992
2 44854  36.9653 223.3038 0007496 161.4091 198.6926 14.99132516 43412
EYESAT-NANO             
1 44877U 19092E   20270.06921343  .00001256  00000-0  66834-4 0  9995
2 44877  97.4576  91.7309 0014495  34.7835 325.4343 15.17000462 42840
